{"type": "FeatureCollection", "features": [{"type": "Feature", "properties": {"apei": "APEI-01", "area_km2": 160000, "status": "Active"}, "geometry": {"type": "MultiPolygon", "coordinates": [[[[-155.12582304008328, 11.181356035769527], [-155.12582304008328, 14.778643926591414], [-155.12582304008328, 14.778643926591414], [-151.4341771200813, 14.778643926591414], [-151.4341771200813, 14.778643926591414], [-151.4341771200813, 11.181356035769527], [-151.4341771200813, 11.181356035769527], [-155.12582304008328, 11.181356035769527], [-155.12582304008328, 11.181356035769527]]]]}}, {"type": "Feature", "properties": {"apei": "APEI-02", "area_km2": 160000, "status": "Active"}, "geometry": {"type": "MultiPolygon", "coordinates": [[[[-137.74295772007395, 13.851891578067521], [-137.74295772007395, 17.448993662844263], [-137.74295772007395, 17.448993662844263], [-134.00730936007193, 17.448993662844263], [-134.00730936007193, 17.448993662844263], [-134.00730936007193, 13.851891578067521], [-134.00730936007193, 13.851891578067521], [-137.74295772007395, 13.851891578067521], [-137.74295772007395, 13.851891578067521]]]]}}, {"type": "Feature", "properties": {"apei": "APEI-03", "area_km2": 160000, "status": "Active"}, "geometry": {"type": "MultiPolygon", "coordinates": [[[[-129.6681040800696, 17.16567302292904], [-129.6681040800696, 20.762961150287374], [-129.6681040800696, 20.762961150287374], [-125.86427892006758, 20.762961150287374], [-125.86427892006758, 20.762961150287374], [-125.86427892006758, 17.16567302292904], [-125.86427892006758, 17.16567302292904], [-129.6681040800696, 17.16567302292904], [-129.6681040800696, 17.16567302292904]]]]}}, {"type": "Feature", "properties": {"apei": "APEI-04", "area_km2": 160000, "status": "Active"}, "geometry": {"type": "MultiPolygon", "coordinates": [[[[-151.22242620008117, 4.651026013917144], [-151.22242620008117, 8.249257827065954], [-151.22242620008117, 8.249257827065954], [-147.6012762000792, 8.249257827065954], [-147.6012762000792, 8.249257827065954], [-147.6012762000792, 4.651026013917144], [-147.6012762000792, 4.651026013917144], [-151.22242620008117, 4.651026013917144], [-151.22242620008117, 4.651026013917144]]]]}}, {"type": "Feature", "properties": {"apei": "APEI-05", "area_km2": 160000, "status": "Active"}, "geometry": {"type": "MultiPolygon", "coordinates": [[[[-138.31774020007427, 5.992303698261912], [-138.31774020007427, 9.602642063781529], [-138.31774020007427, 9.602642063781529], [-134.67386808007228, 9.602642063781529], [-134.67386808007228, 9.602642063781529], [-134.67386808007228, 5.992303698261912], [-134.67386808007228, 5.992303698261912], [-138.31774020007427, 5.992303698261912], [-138.31774020007427, 5.992303698261912]]]]}}, {"type": "Feature", "properties": {"apei": "APEI-06", "area_km2": 160000, "status": "Active"}, "geometry": {"type": "MultiPolygon", "coordinates": [[[[-123.32725056006622, 16.479416367545873], [-123.32725056006622, 20.01211532264125], [-123.32725056006622, 20.01211532264125], [-119.6066505600642, 20.01211532264125], [-119.6066505600642, 20.01211532264125], [-119.6066505600642, 16.479416367545873], [-119.6066505600642, 16.479416367545873], [-123.32725056006622, 16.479416367545873], [-123.32725056006622, 16.479416367545873]]]]}}, {"type": "Feature", "properties": {"apei": "APEI-07", "area_km2": 160000, "status": "Active"}, "geometry": {"type": "MultiPolygon", "coordinates": [[[[-144.35468892007748, 2.891355949507798], [-144.35468892007748, 6.488643923862794], [-144.35468892007748, 6.488643923862794], [-140.74531092007555, 6.488643923862794], [-140.74531092007555, 6.488643923862794], [-140.74531092007555, 2.891355949507798], [-140.74531092007555, 2.891355949507798], [-144.35468892007748, 2.891355949507798], [-144.35468892007748, 2.891355949507798]]]]}}, {"type": "Feature", "properties": {"apei": "APEI-08", "area_km2": 160000, "status": "Active"}, "geometry": {"type": "MultiPolygon", "coordinates": [[[[-133.08926400007147, 4.411355946793355], [-133.08926400007147, 8.008643952872916], [-133.08926400007147, 8.008643952872916], [-129.4707358800695, 8.008643952872916], [-129.4707358800695, 8.008643952872916], [-129.4707358800695, 4.411355946793355], [-129.4707358800695, 4.411355946793355], [-133.08926400007147, 4.411355946793355], [-133.08926400007147, 4.411355946793355]]]]}}, {"type": "Feature", "properties": {"apei": "APEI-09", "area_km2": 160000, "status": "Active"}, "geometry": {"type": "MultiPolygon", "coordinates": [[[[-127.02366792006819, 6.722887373971496], [-127.02366792006819, 10.320175542095742], [-127.02366792006819, 10.320175542095742], [-123.38620992006624, 10.320175542095742], [-123.38620992006624, 10.320175542095742], [-123.38620992006624, 6.722887373971496], [-123.38620992006624, 6.722887373971496], [-127.02366792006819, 6.722887373971496], [-127.02366792006819, 6.722887373971496]]]]}}, {"type": "Feature", "properties": {"apei": "APEI-10", "area_km2": 160000, "status": "Active"}, "geometry": {"type": "MultiPolygon", "coordinates": [[[[-143.02903562153773, 16.515402444722735], [-143.0356909798709, 12.908198228140083], [-146.76934700478395, 12.92150894480644], [-146.76934700478395, 16.515402444722735], [-146.76934700478395, 16.515402444722735], [-143.02903562153773, 16.515402444722735]]]]}}, {"type": "Feature", "properties": {"apei": "APEI-11", "area_km2": 160000, "status": "Active"}, "geometry": {"type": "MultiPolygon", "coordinates": [[[[-119.415, 9.75], [-115.82173886352186, 9.75], [-115.82173886352186, 6.097975248557354], [-119.415, 6.097975248557354], [-119.415, 9.75]]]]}}, {"type": "Feature", "properties": {"apei": "APEI-12", "area_km2": 126740, "status": "Active"}, "geometry": {"type": "MultiPolygon", "coordinates": [[[[-115.00000000161508, 14.55973691907806], [-111.40673886513699, 14.55973691907806], [-111.40673886513699, 13.42341576032875], [-111.69237261200641, 13.225528477357386], [-111.70006678425466, 13.2200657991973], [-111.70764413546846, 13.214448792877533], [-111.71510144337685, 13.208679852393345], [-111.72243554146701, 13.20276143559181], [-111.72805526553805, 13.198054274285369], [-111.73359705166257, 13.19325934544247], [-111.73905947621381, 13.188377884731665], [-111.74444113355145, 13.1834111512037], [-111.7452952035108, 13.182610146641025], [-111.75433034137211, 13.173899664937608], [-112.17153125156597, 12.759462589027294], [-112.17803582759132, 12.752852335466969], [-112.18440179470701, 12.746113473458081], [-112.19062652419473, 12.739248798992946], [-112.19670744489264, 12.732261159325105], [-112.19870198380949, 12.729850982536846], [-112.19937818765322, 12.72904100903537], [-112.20067298566971, 12.727519263503268], [-112.20352211705205, 12.724096467178242], [-112.20746902117833, 12.719377269345557], [-112.2140585021981, 12.711073102241926], [-112.22044877978732, 12.702620368934902], [-112.22663639785145, 12.69402366945684], [-112.56221479327803, 12.214996941555682], [-112.56735338814832, 12.207485404527858], [-112.56935048743503, 12.204382349565833], [-112.57231324276194, 12.199858010538833], [-112.57430345593968, 12.196750769232665], [-112.57717255496942, 12.19217013894081], [-112.57913821575602, 12.189046948158193], [-112.58380798954704, 12.181245199906073], [-112.58911950695966, 12.17190995737866], [-112.5942045930675, 12.162453555487218], [-112.59906041860341, 12.152881302030494], [-112.60368428110468, 12.14319857405502], [-112.84799418278527, 11.614347223045968], [-112.85165848485116, 11.606185905155428], [-112.85515841602802, 11.597954803471453], [-112.85849262373557, 11.589657132170942], [-112.86165982014455, 11.581296131511294], [-112.86528725270449, 11.571040025476862], [-112.86866344885902, 11.560700891333113], [-112.87178648315961, 11.550284709571713], [-112.87465457854591, 11.539797501153828], [-113.0208525719886, 10.97740552254686], [-113.02298126817095, 10.9688563117694], [-113.02494093497614, 10.960267739464655], [-113.0267308412553, 10.95164306747364], [-113.02835032330876, 10.942985569328584], [-113.03013486693055, 10.932117546587563], [-113.03165091435818, 10.92120978100661], [-113.03289759504793, 10.910268746805286], [-113.03387419853539, 10.899300939786599], [-113.03740133133812, 10.853211135749033], [-115.00000000161508, 10.853211135749033], [-115.00000000161508, 14.55973691907806]]]]}}, {"type": "Feature", "properties": {"apei": "APEI-13", "area_km2": 87000, "status": "Active"}, "geometry": {"type": "MultiPolygon", "coordinates": [[[[-128.58333299944354, 11.66670000009042], [-128.58333299991733, 11.0833], [-130.4999999999998, 11.083300000116852], [-130.49999999945845, 11.666675516154392], [-131.166667, 11.666667], [-132.1765941, 11.666667], [-132.1765941, 13.333333], [-128.583333, 13.333333002323155], [-128.58333299944354, 11.66670000009042]]]]}}]}