{"type": "FeatureCollection", "features": [{"type": "Feature", "properties": {"company": "The Metals Company", "overlap_km2": 162676, "overlaps_with": "Nauru Ocean Resources Inc. (NORI), Tonga Offshore Mining Ltd. (TOML), BGR (reserved area)"}, "geometry": {"type": "GeometryCollection", "geometries": [{"type": "Polygon", "coordinates": [[[-152.50999999980013, 7.1667], [-152.50999999980013, 8.1667], [-151.667, 8.1667], [-151.667, 7.1667], [-152.50999999980013, 7.1667]]]}, {"type": "Polygon", "coordinates": [[[-115.33299999985007, 13.0], [-115.33299999985007, 10.999999999700265], [-116.06666699968224, 10.999999999700265], [-116.06666699968224, 9.894999999750212], [-116.0667, 9.894999999750212], [-116.0667, 9.75], [-119.415, 9.75], [-119.41667, 11.083333], [-119.4166481560838, 11.083333], [-119.41664815525465, 11.0833], [-118.9167, 11.0833], [-118.9167, 9.895], [-118.91667000042014, 9.895], [-118.91667000042014, 11.08333299981814], [-117.81667, 11.08333299981814], [-117.81667, 11.08333], [-117.81666999992052, 11.08333], [-117.81666999992052, 11.08332999967979], [-116.06699999975018, 11.08332999967979], [-116.06699999975018, 11.083332999434285], [-116.06667, 11.083333], [-116.06667, 11.0], [-115.333, 11.0], [-115.333, 13.0], [-115.33299999985007, 13.0]]]}, {"type": "Polygon", "coordinates": [[[-115.0, 13.0], [-115.0, 10.853211135749033], [-115.00000000161508, 10.853211135749033], [-115.00000000161508, 13.0], [-115.0, 13.0]]]}, {"type": "Polygon", "coordinates": [[[-134.067, 12.1933], [-133.833, 12.1933], [-133.833, 11.5], [-134.37699999985006, 11.5], [-134.37699999985006, 12.000000000399723], [-134.37746699980215, 12.000000000399723], [-134.37746699980215, 12.0], [-134.583, 12.0], [-134.583, 13.0], [-134.25, 13.0], [-134.25, 12.5], [-134.067, 12.5], [-134.067, 12.1933]]]}, {"type": "Polygon", "coordinates": [[[-123.58333, 13.125], [-123.58333, 13.0833], [-123.583, 13.0833], [-123.583, 12.75], [-125.33299999965021, 12.75], [-125.33299999965021, 13.08329999969527], [-123.58333000037919, 13.08329999969527], [-123.58333000037919, 14.083329999979583], [-123.58333299961822, 14.083329999979583], [-123.58333299961822, 13.124999999950091], [-124.37499999955031, 13.124999999950091], [-124.37499999955031, 13.375000000349758], [-125.33318750000011, 13.375000000349758], [-125.33329999999495, 13.749999983183821], [-125.33329999999495, 13.749999999600334], [-125.33329999999988, 13.749999999600334], [-125.3333, 13.75], [-125.0, 13.75], [-125.0, 14.083333], [-123.58333, 14.083333], [-123.58333, 13.125]]]}, {"type": "Polygon", "coordinates": [[[-120.7148, 14.935], [-120.5, 14.935], [-120.50000006706276, 14.934999999750232], [-120.50000000009987, 14.934999999750232], [-120.50000000009987, 14.66669999990512], [-120.5, 14.66669999990512], [-120.5, 14.5], [-120.75, 14.5], [-120.75, 14.3333], [-120.98963, 14.3333], [-120.98963000000053, 14.333299999895132], [-121.83300000034973, 14.333299999895132], [-121.83300000034973, 14.0], [-121.33299999955028, 14.0], [-121.33299999955028, 13.666700000104981], [-121.16700000034973, 13.666700000104981], [-121.16700000034973, 12.000000000399723], [-121.59999999970017, 12.000000000399723], [-121.59999999970017, 12.600000000099953], [-122.167, 12.600000000099953], [-122.167, 12.89], [-122.99999999960028, 12.89], [-122.99999999960028, 12.933329999579882], [-123.0, 12.933329999579882], [-123.0, 13.35], [-122.75, 13.35], [-122.75, 13.350000000399746], [-122.49999999970021, 13.350000000399746], [-122.49999999970021, 13.500000000099988], [-122.16669999980513, 13.500000000099988], [-122.16669999980513, 14.934999999750232], [-121.0976, 14.934999999750232], [-121.0976, 14.9286], [-120.7148, 14.9286], [-120.7148, 14.935]]]}, {"type": "Polygon", "coordinates": [[[-132.8, 14.29], [-132.0, 14.6667], [-132.0, 13.580100000414745], [-133.19999999990006, 13.580100000414745], [-133.83299999975014, 13.580100000414745], [-133.83299999975014, 13.5801], [-133.833, 13.5801], [-134.0, 14.0], [-133.25, 14.0], [-133.25, 13.8667], [-133.24999999980014, 13.8667], [-133.24999999980014, 13.866699999705247], [-133.19999999990006, 13.866699999705247], [-132.7999999998001, 13.866699999705247], [-132.7999999998001, 14.289999999600354], [-132.8, 14.289999999600354], [-132.8, 14.29]]]}, {"type": "Polygon", "coordinates": [[[-129.01303541543783, 15.399869110778859], [-128.58333000027926, 15.499999999700265], [-128.58333000027926, 15.0], [-131.0, 15.0], [-131.0, 15.750000000099988], [-130.99999999980014, 15.750000000099988], [-130.99999999980014, 15.8], [-130.0, 15.8], [-130.0, 15.333], [-129.3, 15.333], [-129.01303541543783, 15.399869110778859]]]}, {"type": "LineString", "coordinates": [[-152.51, 7.1667], [-152.51, 8.1667]]}, {"type": "LineString", "coordinates": [[-152.51, 8.1667], [-152.50999999980013, 8.1667]]}, {"type": "LineString", "coordinates": [[-115.82173886352186, 9.75], [-116.0667, 9.75]]}, {"type": "LineString", "coordinates": [[-134.37699999985006, 11.5], [-134.377, 11.5]]}, {"type": "LineString", "coordinates": [[-121.6, 12.0], [-121.6, 12.6]]}, {"type": "LineString", "coordinates": [[-121.6, 12.6], [-122.167, 12.6]]}, {"type": "LineString", "coordinates": [[-122.167, 12.6], [-122.167, 12.600000000099953]]}, {"type": "LineString", "coordinates": [[-122.99999999960028, 12.89], [-123.0, 12.89]]}, {"type": "LineString", "coordinates": [[-122.333, 14.0], [-122.167, 14.0]]}, {"type": "LineString", "coordinates": [[-122.1667, 14.935], [-121.0976, 14.935]]}, {"type": "LineString", "coordinates": [[-132.8, 13.8667], [-132.8, 14.289999999600354]]}, {"type": "LineString", "coordinates": [[-133.24999999980014, 13.8667], [-132.8, 13.8667]]}, {"type": "LineString", "coordinates": [[-131.0, 15.8], [-130.99999999980014, 15.8]]}]}}, {"type": "Feature", "properties": {"company": "Impossible Metals", "overlap_km2": 74887, "overlaps_with": "DORD (reserved area), Government of the Republic of Korea (reserved area), BGR (reserved area), IFREMER (reserved area), UKSRL-ll (reserved area), Yuzhmorgeologia (reserved area), Deep Ocean Resources Development Co. Ltd. (Japan)"}, "geometry": {"type": "MultiPolygon", "coordinates": [[[[-134.1293, 10.776861327858201], [-134.1293, 10.98], [-134.1293, 11.2], [-134.75, 11.2], [-134.75, 11.499999999600334], [-134.75, 11.5], [-134.37746699980215, 11.5], [-134.37699999985006, 11.5], [-133.833, 11.5], [-133.833, 11.6667], [-133.83299999975014, 11.6667], [-133.6667, 11.6667], [-133.6667, 11.0], [-133.6667, 10.776861327858201], [-134.1293, 10.776861327858201]]], [[[-136.0, 13.125], [-136.0, 12.500000000299849], [-136.0, 12.5], [-137.5333, 12.5], [-137.5333, 13.125], [-136.0, 13.125]]], [[[-133.24999999980014, 13.8667], [-133.25, 13.8667], [-133.25, 14.0], [-134.0, 14.0], [-134.0, 14.35], [-134.0, 15.9167], [-132.9167, 15.9167], [-132.9167, 14.29], [-132.91666700018186, 14.29], [-132.91666700018186, 15.650000000299826], [-132.9103, 15.650000000299826], [-132.9103, 14.29], [-132.8, 14.29], [-132.8, 14.289999999600354], [-132.8, 13.8667], [-133.24999999980014, 13.8667]]], [[[-130.0, 15.3333], [-130.0, 15.8], [-130.99999999980014, 15.8], [-131.0, 15.8], [-131.0, 16.0], [-130.49999999990007, 16.0], [-130.49999999990007, 16.004], [-130.1666670002818, 16.004], [-130.1666670002818, 16.0], [-129.3, 16.0], [-129.3, 15.3333], [-130.0, 15.3333]]], [[[-128.8376, 16.004], [-129.1667, 16.004], [-129.1667, 16.1667], [-129.167, 16.1667], [-130.0, 16.1667], [-130.0, 16.3299], [-130.0, 16.3333], [-130.1666670002818, 16.3333], [-130.1666670002818, 16.3299], [-130.1667, 16.3299], [-130.1667, 16.4167], [-130.1667, 16.4191], [-130.25, 16.4191], [-130.25, 16.6667], [-130.083, 16.6667], [-130.083, 16.8333], [-129.5, 16.8333], [-129.5, 16.6667], [-128.8376, 16.6667], [-128.8376, 16.004]]], [[[-126.20000000039965, 16.25], [-126.75, 16.25], [-126.75, 16.0], [-127.0, 16.0], [-127.0, 15.733330000279352], [-127.0, 15.7333], [-127.54930026571286, 15.7333], [-127.54930026571286, 16.1667], [-127.167, 16.1667], [-127.167, 16.3333], [-127.167, 16.6667], [-126.833, 16.6667], [-126.833, 17.1613], [-126.0, 17.1613], [-126.0, 16.7525], [-126.167, 16.7525], [-126.167, 16.25], [-126.20000000039965, 16.25]]], [[[-125.9972, 16.7525], [-125.99999999990007, 16.7525], [-125.99999999990007, 16.916667000181974], [-125.9972, 16.916667000181974], [-125.9972, 16.7525]]]]}}, {"type": "Feature", "properties": {"company": "Lockheed Martin", "overlap_km2": 72014, "overlaps_with": "APEI-13 (APEI, protected)"}, "geometry": {"type": "GeometryCollection", "geometries": [{"type": "Polygon", "coordinates": [[[-144.3386999997052, 11.0], [-144.3386999997052, 10.999999999700265], [-144.9999999997002, 10.999999999700265], [-144.9999999997002, 11.0], [-144.3386999997052, 11.0]]]}, {"type": "Polygon", "coordinates": [[[-133.833333, 11.666667], [-133.833333, 12.193300000394743], [-133.83299999975014, 12.193300000394743], [-133.83299999975014, 11.6667], [-133.6667, 11.6667], [-133.6667, 11.666667], [-133.833333, 11.666667]]]}, {"type": "Polygon", "coordinates": [[[-134.25, 12.5], [-134.25, 13.0], [-134.24999999960028, 13.0], [-134.24999999960028, 12.500000000299849], [-134.06699999975018, 12.500000000299849], [-134.06699999975018, 12.5], [-134.25, 12.5]]]}, {"type": "Polygon", "coordinates": [[[-134.0, 13.0], [-134.0, 12.833333], [-133.833333, 12.833333], [-133.51, 12.833333], [-133.51, 12.83333299991807], [-134.00000000009987, 12.83333299991807], [-134.00000000009987, 13.0], [-134.0, 13.0]]]}, {"type": "Polygon", "coordinates": [[[-131.0, 13.333333], [-130.0, 13.333333], [-130.0, 13.333333001407235], [-128.583333, 13.333333002323155], [-128.583333, 11.666667], [-130.49999999945845, 11.666667], [-130.49999999945845, 11.666675516154392], [-131.166667, 11.666667], [-131.25, 11.666667], [-132.1765941, 11.666667], [-132.1765941, 13.333333], [-131.0, 13.333333000760705], [-131.0, 13.333333]]]}, {"type": "Polygon", "coordinates": [[[-130.0, 13.336667], [-128.5833330004176, 13.336667], [-128.5833330004176, 13.336666999782267], [-130.0, 13.336666999782267], [-130.0, 13.336667]]]}, {"type": "Polygon", "coordinates": [[[-132.5, 10.5], [-132.50000000039967, 10.5], [-132.50000000039967, 10.999999999700265], [-132.5, 10.999999999700265], [-132.5, 10.5]]]}, {"type": "Polygon", "coordinates": [[[-125.333333, 13.75], [-125.333333, 13.749999999600334], [-125.99999999990007, 13.749999999600334], [-126.25000000029974, 13.749999999600334], [-126.25000000029974, 14.333330000379249], [-126.70000000029972, 14.333330000379249], [-127.76666999982058, 14.333330000379249], [-127.76666999982058, 14.333333], [-126.25, 14.333333], [-126.25, 13.75], [-125.333333, 13.75]]]}, {"type": "Polygon", "coordinates": [[[-128.0, 12.0], [-128.0, 12.000000000399723], [-127.71699999985009, 12.000000000399723], [-127.71699999985009, 12.0], [-128.0, 12.0]]]}, {"type": "Polygon", "coordinates": [[[-128.0, 14.333333], [-127.76699999975017, 14.333333], [-127.76699999975017, 14.333299999895132], [-128.0, 14.333299999895132], [-128.0, 14.333333]]]}, {"type": "LineString", "coordinates": [[-145.0, 9.5], [-145.0, 11.0]]}, {"type": "LineString", "coordinates": [[-144.3386999997052, 11.0], [-143.632, 11.0]]}, {"type": "LineString", "coordinates": [[-142.25, 10.625], [-142.25, 10.375]]}, {"type": "LineString", "coordinates": [[-142.25, 10.125], [-142.25, 9.875]]}, {"type": "LineString", "coordinates": [[-133.5, 11.0], [-133.666667, 11.0]]}, {"type": "LineString", "coordinates": [[-133.51, 12.83333299991807], [-133.51, 12.518333000367704]]}, {"type": "LineString", "coordinates": [[-132.25, 12.518333000367704], [-132.25, 12.833333]]}, {"type": "LineString", "coordinates": [[-132.25, 12.833333], [-132.25, 13.333333]]}, {"type": "LineString", "coordinates": [[-132.25, 13.333333], [-132.25, 13.483333]]}, {"type": "LineString", "coordinates": [[-130.0, 13.333333001407235], [-130.0, 13.336666999782267]]}, {"type": "LineString", "coordinates": [[-132.5833, 10.5], [-133.5, 10.5]]}, {"type": "LineString", "coordinates": [[-133.5, 10.5], [-133.5, 11.0]]}]}}, {"type": "Feature", "properties": {"company": "SeaX", "overlap_km2": 61963, "overlaps_with": "Yuzhmorgeologia (reserved area), DORD (reserved area), BGR (reserved area), UKSRL-ll (reserved area), IOM (reserved area)"}, "geometry": {"type": "GeometryCollection", "geometries": [{"type": "Polygon", "coordinates": [[[-142.125, 8.96630000004501], [-142.1250000000499, 8.96630000004501], [-142.1250000000499, 9.281299999595376], [-142.125, 9.281299999595376], [-142.125, 8.96630000004501]]]}, {"type": "Polygon", "coordinates": [[[-144.125, 9.062499999975046], [-144.12499999965024, 9.062499999975046], [-144.12499999965024, 9.062491592366442], [-144.125, 9.062499999975046]]]}, {"type": "Polygon", "coordinates": [[[-144.9375, 9.0625], [-144.9375, 9.12499999985016], [-144.9374999998251, 9.12499999985016], [-144.9374999998251, 9.0625], [-144.9375, 9.0625]]]}, {"type": "Polygon", "coordinates": [[[-139.5, 10.8332], [-140.125, 10.8333], [-139.5, 10.8333], [-139.5, 10.8332]]]}, {"type": "Polygon", "coordinates": [[[-133.6667, 11.666667], [-133.6667, 11.0], [-133.66667199417478, 11.0], [-133.666672, 10.98], [-134.1293, 10.98], [-134.75, 10.98], [-134.75, 11.499999999600334], [-134.75, 11.5], [-134.377467, 11.5], [-134.37746699980215, 11.5], [-134.37699999985006, 11.5], [-133.833, 11.5], [-133.833, 11.666667], [-133.6667, 11.666667]]]}, {"type": "Polygon", "coordinates": [[[-126.25, 11.5], [-126.25000000029974, 11.5], [-126.25000000029974, 11.666699999605328], [-126.25, 11.666699999605328], [-126.25, 11.5]]]}, {"type": "Polygon", "coordinates": [[[-126.833, 11.0867966], [-126.8330000002498, 11.08679659999932], [-126.8330000002498, 11.499999999600334], [-126.833, 11.499999999600334], [-126.833, 11.0867966]]]}, {"type": "Polygon", "coordinates": [[[-128.117, 11.0833], [-128.583333, 11.0833], [-128.58333299991733, 11.083300144849408], [-128.58333299991733, 11.083300000094994], [-128.11699999995, 11.083300000094994], [-128.11699999995, 11.083300000000136], [-128.117, 11.0833]]]}, {"type": "Polygon", "coordinates": [[[-128.583, 11.6667], [-128.58298963885034, 11.666699999605328], [-128.58300000000023, 11.666699999605328], [-128.583, 11.6667]]]}, {"type": "Polygon", "coordinates": [[[-120.5, 10.75], [-120.5, 10.5], [-120.50000000009987, 10.5], [-120.50000000009987, 10.75], [-120.5, 10.75]]]}, {"type": "Polygon", "coordinates": [[[-123.0, 12.93333], [-123.0, 12.933329999579882], [-123.00000466330174, 12.933329999579882], [-123.0, 12.93333]]]}, {"type": "Polygon", "coordinates": [[[-122.99999999960028, 12.89], [-122.2419788, 12.89], [-122.2341033, 12.4728], [-122.73889999993503, 12.4728], [-122.7389, 12.4728], [-122.7389, 12.7825], [-122.90309999976512, 12.7825], [-122.9031, 12.7825], [-122.9031, 12.4705], [-123.0, 12.4705], [-123.0, 12.89], [-122.99999999960028, 12.89]]]}, {"type": "Polygon", "coordinates": [[[-121.166667, 11.3308713], [-121.166667, 11.0], [-121.0, 11.0], [-121.0, 10.999999999700265], [-121.16666700028179, 10.999999999700265], [-121.16666700028179, 11.330871300000942], [-121.166667, 11.3308713]]]}, {"type": "Polygon", "coordinates": [[[-139.14, 13.058], [-138.38532962456523, 13.056495374216562], [-138.3855, 12.439600000139933], [-138.3740000000999, 12.439600000139933], [-138.3740000000999, 12.4396], [-138.4644, 12.4396], [-138.4644, 12.7355], [-138.5571693874621, 12.735705128551603], [-138.55716931765582, 12.73570512839725], [-138.6452999997951, 12.735899999999548], [-138.6453, 12.7359], [-138.6453, 12.936], [-139.08449999997498, 12.936], [-139.0845, 12.936], [-139.0845, 12.331], [-138.84510000006492, 12.331], [-138.8451, 12.331], [-138.8451, 12.2283], [-138.9414, 12.2283], [-138.9414, 11.865900000084991], [-138.9414, 11.8659], [-138.374, 11.8659], [-138.374, 11.6333], [-138.374, 11.633299999895144], [-138.374, 10.8333], [-138.625, 10.8333], [-139.026, 10.8333], [-139.0258, 10.9738], [-139.02579999997, 10.9738], [-138.6339, 10.9738], [-138.6339, 11.3434], [-138.63390000018484, 11.3434], [-139.089, 11.3434], [-139.089, 11.4394], [-139.5, 11.439], [-139.5, 12.6645], [-139.5, 13.058], [-139.14, 13.058]]]}, {"type": "Polygon", "coordinates": [[[-136.0, 12.500000000299849], [-136.0, 12.5], [-137.5333, 12.5], [-137.5333333, 13.5], [-137.53329999989506, 13.5], [-136.609698, 13.5], [-136.6098528, 12.9980323], [-136.0, 12.9973399], [-136.0, 12.500000000299849]]]}, {"type": "Polygon", "coordinates": [[[-123.58333000037919, 13.0833], [-123.58333000037919, 13.124624371809203], [-123.583, 13.0833], [-123.58333000037919, 13.0833]]]}, {"type": "Polygon", "coordinates": [[[-123.583333, 13.125], [-123.5833329999996, 13.124999999950091], [-124.37499999955031, 13.124999999950091], [-124.37499999955031, 13.125], [-123.583333, 13.125]]]}, {"type": "Polygon", "coordinates": [[[-133.1999964594274, 13.866699999705247], [-132.8, 13.866699999705247], [-132.8, 13.8666667], [-133.1999964594274, 13.866699999705247]]]}, {"type": "Polygon", "coordinates": [[[-133.24999999980014, 13.8667], [-133.25, 13.8667], [-133.25, 14.0], [-133.5333333, 14.0], [-134.0, 14.0], [-134.0, 14.35], [-134.0, 15.400691733631987], [-132.9167, 15.39900005200129], [-132.9167, 14.29], [-132.91666700018186, 14.29], [-132.91666700018186, 15.399000000468764], [-132.9166667, 15.399], [-132.9166667, 14.29], [-132.8, 14.29], [-132.8, 14.289999999600354], [-132.8, 13.8667], [-133.2, 13.8667], [-133.24999999980014, 13.8667]]]}, {"type": "LineString", "coordinates": [[-145.5, 9.5], [-145.0, 9.5]]}, {"type": "LineString", "coordinates": [[-142.25, 9.875], [-142.125, 9.875]]}, {"type": "LineString", "coordinates": [[-145.5, 9.1269605], [-145.5, 9.5]]}, {"type": "LineString", "coordinates": [[-140.125, 11.375], [-140.125, 11.125]]}, {"type": "LineString", "coordinates": [[-140.125, 11.125], [-139.6, 11.125]]}, {"type": "LineString", "coordinates": [[-140.125, 10.8333], [-140.125, 10.375]]}, {"type": "LineString", "coordinates": [[-140.125, 10.375], [-139.625, 10.375]]}, {"type": "LineString", "coordinates": [[-139.625, 10.375], [-139.625, 10.125]]}, {"type": "LineString", "coordinates": [[-139.625, 10.125], [-140.625, 10.125]]}, {"type": "LineString", "coordinates": [[-140.625, 10.125], [-140.625, 9.875]]}, {"type": "LineString", "coordinates": [[-140.625, 9.875], [-140.875, 9.875]]}, {"type": "LineString", "coordinates": [[-140.875, 9.875], [-140.875, 10.125]]}, {"type": "LineString", "coordinates": [[-140.875, 10.125], [-141.125, 10.125]]}, {"type": "LineString", "coordinates": [[-141.125, 10.125], [-141.125, 10.375]]}, {"type": "LineString", "coordinates": [[-141.125, 10.375], [-140.375, 10.375]]}, {"type": "LineString", "coordinates": [[-140.375, 10.375], [-140.375, 10.625]]}, {"type": "LineString", "coordinates": [[-140.375, 10.625], [-140.875, 10.625]]}, {"type": "LineString", "coordinates": [[-140.875, 10.625], [-140.875, 11.125]]}, {"type": "LineString", "coordinates": [[-140.875, 11.125], [-140.375, 11.125]]}, {"type": "LineString", "coordinates": [[-140.375, 11.125], [-140.375, 11.375]]}, {"type": "LineString", "coordinates": [[-140.375, 11.375], [-140.125, 11.375]]}, {"type": "LineString", "coordinates": [[-120.50000000009987, 10.5], [-121.5, 10.5]]}, {"type": "LineString", "coordinates": [[-121.5, 10.5], [-121.5, 11.0]]}, {"type": "LineString", "coordinates": [[-121.5, 11.0], [-122.167, 11.0]]}, {"type": "LineString", "coordinates": [[-122.167, 11.0], [-122.167, 11.3333]]}, {"type": "LineString", "coordinates": [[-122.167, 11.3333], [-123.333, 11.3333]]}, {"type": "LineString", "coordinates": [[-123.333, 11.3333], [-123.333, 12.9333]]}, {"type": "LineString", "coordinates": [[-121.0, 10.999999999700265], [-121.0, 10.750000000199918]]}, {"type": "LineString", "coordinates": [[-139.5, 12.6645], [-139.767, 12.6645]]}, {"type": "LineString", "coordinates": [[-139.767, 12.6645], [-139.767, 13.05]]}, {"type": "Point", "coordinates": [-122.096, 12.0]}]}}, {"type": "Feature", "properties": {"company": "American Metal Resources", "overlap_km2": 17249, "overlaps_with": "BGR (reserved area), UKSRL-ll (reserved area)"}, "geometry": {"type": "GeometryCollection", "geometries": [{"type": "Polygon", "coordinates": [[[-142.43750000032475, 8.3125], [-142.43750000032475, 8.40630000044473], [-142.1250000000499, 8.40630000044473], [-142.1250000000499, 8.81249999957538], [-142.125, 8.81249999957538], [-142.125, 8.4063], [-142.4375, 8.4063], [-142.4375, 8.3125], [-142.43750000032475, 8.3125]]]}, {"type": "Polygon", "coordinates": [[[-142.6875, 8.3125], [-142.6875, 8.5625], [-142.6874999998251, 8.5625], [-142.6874999998251, 8.3125], [-142.6875, 8.3125]]]}, {"type": "Polygon", "coordinates": [[[-142.9375, 8.3125], [-142.93750000022482, 8.3125], [-142.93750000022482, 8.687499999825206], [-142.9375, 8.687499999825206], [-142.9375, 8.3125]]]}, {"type": "Polygon", "coordinates": [[[-144.12499999965024, 8.733302660468542], [-144.12499999965024, 8.733300000294832], [-144.125, 8.733300000294832], [-144.12499999965024, 8.733302660468542]]]}, {"type": "Polygon", "coordinates": [[[-141.875, 8.625], [-141.875, 9.281299999595376], [-141.87499999965024, 9.281299999595376], [-141.87499999965024, 8.625], [-141.875, 8.625]]]}, {"type": "Polygon", "coordinates": [[[-132.833333, 9.583333], [-132.833333, 9.5], [-132.8333330000179, 9.5], [-132.8333330000179, 9.583333], [-132.833333, 9.583333]]]}, {"type": "Polygon", "coordinates": [[[-135.0, 10.6667], [-135.0, 10.98], [-134.99999999990007, 10.98], [-134.99999999990007, 10.6667], [-135.0, 10.6667]]]}, {"type": "Polygon", "coordinates": [[[-116.06667, 9.895], [-116.06667, 11.0], [-115.333, 11.0], [-115.333, 11.667], [-115.33299999985007, 11.667], [-115.33299999985007, 10.999999999700265], [-116.06666699968224, 10.999999999700265], [-116.06666699968224, 9.894999999750212], [-116.0667, 9.894999999750212], [-116.0667, 9.75], [-116.067, 9.75], [-119.415, 9.75], [-119.41661465547335, 9.75], [-119.4166667, 9.75], [-119.4166667, 11.08333333], [-119.41664815609208, 11.083333329987761], [-119.41664815525465, 11.0833], [-118.9167, 11.0833], [-118.9167, 9.895], [-118.91667000042014, 9.895], [-118.91667000042014, 11.08333299981814], [-118.91667, 11.08333299981814], [-118.91667, 9.895], [-117.81667, 9.895], [-116.06667, 9.895]]]}, {"type": "Polygon", "coordinates": [[[-115.0, 11.667], [-115.00000000161508, 11.009831535541727], [-115.00000000161508, 11.667], [-115.0, 11.667]]]}, {"type": "Polygon", "coordinates": [[[-137.34599999960028, 11.65], [-136.58, 11.65], [-136.58, 11.200000000199907], [-136.58, 11.2], [-137.346, 11.2], [-137.346, 11.65], [-137.34599999960028, 11.65]]]}, {"type": "Polygon", "coordinates": [[[-115.333, 13.0], [-115.33299999985007, 13.0], [-115.33299999985007, 12.06], [-115.333, 12.06], [-115.333, 13.0]]]}, {"type": "Polygon", "coordinates": [[[-115.0, 13.0], [-115.0, 12.06], [-115.00000000161508, 12.06], [-115.00000000161508, 13.0], [-115.0, 13.0]]]}, {"type": "Polygon", "coordinates": [[[-118.25, 14.75], [-118.25, 14.5], [-118.25000000009987, 14.5], [-118.25000000009987, 14.750000000299849], [-117.25000000029974, 14.750000000299849], [-117.25000000029974, 14.966700000204867], [-116.00000000009987, 14.966700000204867], [-116.00000000009987, 14.9667], [-117.25, 14.9667], [-117.25, 14.75], [-118.25, 14.75]]]}, {"type": "Polygon", "coordinates": [[[-119.3333, 14.6667], [-119.33330000029474, 14.6667], [-119.33330000029474, 14.999999999800195], [-119.3333, 14.999999999800195], [-119.3333, 14.6667]]]}, {"type": "Polygon", "coordinates": [[[-115.0, 14.0], [-115.00000000161508, 14.0], [-115.00000000161508, 14.452010918104472], [-115.0, 14.0]]]}, {"type": "Polygon", "coordinates": [[[-123.952, 15.726000000399722], [-122.33333000017933, 15.726000000399722], [-122.33333000017933, 15.726], [-123.952, 15.726], [-123.952, 15.726000000399722]]]}, {"type": "Polygon", "coordinates": [[[-124.33333, 16.06667], [-124.33333, 16.23333], [-124.33332999977961, 16.233329999999476], [-124.33332999977961, 16.06667000022037], [-123.952, 16.06667000022037], [-123.952, 16.06667], [-124.33333, 16.06667]]]}, {"type": "LineString", "coordinates": [[-141.625, 9.625], [-141.625, 8.625]]}, {"type": "LineString", "coordinates": [[-141.625, 8.625], [-141.87499999965024, 8.625]]}, {"type": "LineString", "coordinates": [[-142.125, 9.875], [-141.375, 9.875]]}, {"type": "LineString", "coordinates": [[-141.375, 9.875], [-141.375, 9.625]]}, {"type": "LineString", "coordinates": [[-141.375, 9.625], [-141.625, 9.625]]}, {"type": "LineString", "coordinates": [[-139.875, 8.875], [-140.375, 8.875]]}, {"type": "LineString", "coordinates": [[-140.375, 8.875], [-140.375, 9.125]]}, {"type": "LineString", "coordinates": [[-140.375, 9.125], [-140.625, 9.125]]}, {"type": "LineString", "coordinates": [[-140.625, 9.125], [-140.625, 9.375]]}, {"type": "LineString", "coordinates": [[-140.625, 9.375], [-140.875, 9.375]]}, {"type": "LineString", "coordinates": [[-140.875, 9.375], [-140.875, 9.625]]}, {"type": "LineString", "coordinates": [[-140.875, 9.625], [-140.125, 9.625]]}, {"type": "LineString", "coordinates": [[-140.125, 9.625], [-140.125, 9.125]]}, {"type": "LineString", "coordinates": [[-140.125, 9.125], [-139.625, 9.125]]}, {"type": "LineString", "coordinates": [[-139.625, 9.125], [-139.625, 8.875]]}, {"type": "LineString", "coordinates": [[-135.25, 9.61], [-135.25, 10.0997]]}, {"type": "LineString", "coordinates": [[-135.25, 10.0997], [-134.568, 10.0997]]}, {"type": "LineString", "coordinates": [[-134.568, 10.0997], [-134.568, 10.6667]]}, {"type": "LineString", "coordinates": [[-134.568, 10.6667], [-134.99999999990007, 10.6667]]}, {"type": "LineString", "coordinates": [[-134.75, 10.98], [-134.1293, 10.98]]}, {"type": "LineString", "coordinates": [[-134.1293, 10.98], [-134.1293, 9.7975]]}, {"type": "LineString", "coordinates": [[-115.821738864, 9.75], [-116.0667, 9.75]]}, {"type": "LineString", "coordinates": [[-139.875, 11.625], [-140.375, 11.625]]}, {"type": "LineString", "coordinates": [[-140.375, 11.625], [-140.375, 12.375]]}, {"type": "LineString", "coordinates": [[-140.375, 12.375], [-140.1, 12.375]]}, {"type": "LineString", "coordinates": [[-140.1, 12.375], [-140.1, 12.35]]}, {"type": "LineString", "coordinates": [[-140.1, 12.35], [-139.875, 12.35]]}, {"type": "LineString", "coordinates": [[-139.875, 12.35], [-139.875, 11.625]]}, {"type": "LineString", "coordinates": [[-120.5, 14.935], [-120.5, 15.303]]}, {"type": "LineString", "coordinates": [[-120.5, 15.3333], [-120.333, 15.3333]]}, {"type": "LineString", "coordinates": [[-120.333, 15.3333], [-120.333, 15.8333]]}, {"type": "LineString", "coordinates": [[-115.00000000161508, 14.0], [-116.0, 14.0]]}, {"type": "LineString", "coordinates": [[-123.952, 15.726000000399722], [-123.952, 16.06667]]}, {"type": "Point", "coordinates": [-122.333, 16.041556656]}]}}]}