{"type": "FeatureCollection", "features": [{"type": "Feature", "properties": {"area_a": "SeaX", "area_b": "Impossible Metals", "overlap_km2": 35259}, "geometry": {"type": "MultiPolygon", "coordinates": [[[[-133.6667, 11.666667], [-133.6667, 10.98], [-134.1293, 10.98], [-134.1293, 11.2], [-134.75, 11.2], [-134.75, 11.5], [-134.377467, 11.5], [-133.833, 11.5], [-133.833, 11.666667], [-133.6667, 11.666667]]], [[[-136.0, 12.5], [-137.5333, 12.5], [-137.5333, 13.125], [-136.6098136448911, 13.125], [-136.6098528, 12.9980323], [-136.0, 12.9973399], [-136.0, 12.5]]], [[[-133.25, 13.8667], [-133.25, 14.0], [-133.5333333, 14.0], [-134.0, 14.0], [-134.0, 14.35], [-134.0, 15.400691733631987], [-132.9166667, 15.399], [-132.9166667, 14.29], [-132.9103, 14.29], [-132.8, 14.29], [-132.8, 13.8667], [-133.2, 13.8667], [-133.25, 13.8667]]]]}}, {"type": "Feature", "properties": {"area_a": "The Metals Company", "area_b": "American Metal Resources", "overlap_km2": 32892}, "geometry": {"type": "GeometryCollection", "geometries": [{"type": "Polygon", "coordinates": [[[-115.0, 13.0], [-115.0, 12.06], [-115.333, 12.06], [-115.333, 13.0], [-115.0, 13.0]]]}, {"type": "Polygon", "coordinates": [[[-116.067, 9.75], [-119.415, 9.75], [-119.4166667, 11.08069827011732], [-119.4166667, 11.083333], [-118.91667, 11.083333], [-118.91667, 9.895], [-117.81667, 9.895], [-116.06667, 9.895], [-116.06667, 11.0], [-115.333, 11.0], [-115.333, 11.667], [-115.0, 11.667], [-115.000000002, 10.853211136], [-115.002, 10.305], [-115.821738864, 9.75], [-116.067, 9.75]]]}, {"type": "LineString", "coordinates": [[-120.5, 14.935], [-120.5, 14.6667]]}]}}, {"type": "Feature", "properties": {"area_a": "The Metals Company", "area_b": "SeaX", "overlap_km2": 3747}, "geometry": {"type": "GeometryCollection", "geometries": [{"type": "Polygon", "coordinates": [[[-123.58333, 13.0833], [-125.333, 13.0833], [-125.33314116899618, 13.220563320626853], [-125.3331875, 13.375], [-124.375, 13.375], [-124.375, 13.125], [-123.583333, 13.125], [-123.58333, 13.12462432432527], [-123.58333, 13.0833]]]}, {"type": "Polygon", "coordinates": [[[-132.8, 13.8667], [-132.8, 13.8666667], [-133.2, 13.8667], [-132.8, 13.8667]]]}, {"type": "LineString", "coordinates": [[-133.833, 11.666667], [-133.833, 11.5]]}, {"type": "LineString", "coordinates": [[-133.833, 11.5], [-134.377, 11.5]]}, {"type": "LineString", "coordinates": [[-123.58333, 13.0833], [-123.583, 13.0833]]}, {"type": "LineString", "coordinates": [[-122.2419788, 12.89], [-123.0, 12.89]]}, {"type": "LineString", "coordinates": [[-123.0, 12.89], [-123.0, 12.93333]]}, {"type": "LineString", "coordinates": [[-132.8, 13.8667], [-132.8, 14.29]]}, {"type": "LineString", "coordinates": [[-134.0, 14.0], [-133.5333333, 14.0]]}, {"type": "LineString", "coordinates": [[-133.5333333, 14.0], [-133.25, 14.0]]}, {"type": "LineString", "coordinates": [[-133.25, 14.0], [-133.25, 13.8667]]}, {"type": "LineString", "coordinates": [[-133.25, 13.8667], [-133.2, 13.8667]]}]}}]}